NORAD_CAT_ID,OBJECT_NAME,OBJECT_TYPE,EPOCH,MEAN_MOTION,ECCENTRICITY,INCLINATION,RA_OF_ASC_NODE,ARG_OF_PERICENTER,MEAN_ANOMALY,BSTAR,MEAN_MOTION_DOT,MEAN_MOTION_DDOT,TLE_LINE0,TLE_LINE1,TLE_LINE2,SEMIMAJOR_AXIS,PERIOD,APOGEE,PERIGEE,DECAYED
53154.0,STARLINK-4077,PAYLOAD,2024-06-25 22:37:20,15.08835436,0.000138,53.2178,75.247,109.4422,250.6719,-2.5644e-05,-6.96e-06,0.0,0 STARLINK-4077,1 53154U 22083Y   24177.94259616 -.00000696  00000-0 -25644-4 0  9994,2 53154  53.2178  75.2470 0001380 109.4422 250.6719 15.08835436107499,6917.894,95.438,540.714,538.805,0.0
53154.0,STARLINK-4077,PAYLOAD,2024-06-26 22:28:07,15.08832652,0.0001419,53.219,70.7957,114.1594,245.9546,5.3689e-05,5.66e-06,0.0,0 STARLINK-4077,1 53154U 22083Y   24178.93619930  .00000566  00000-0  53689-4 0  9997,2 53154  53.2190  70.7957 0001419 114.1594 245.9546 15.08832652107648,6917.903,95.438,540.749,538.786,0.0
53154.0,STARLINK-4077,PAYLOAD,2024-06-27 09:35:48,15.08851119,0.0001037,53.2181,68.7128,103.1745,256.9363,0.00020074,2.909e-05,0.0,0 STARLINK-4077,1 53154U 22083Y   24179.39986384  .00002909  00000-0  20074-3 0  9992,2 53154  53.2181  68.7128 0001037 103.1745 256.9363 15.08851119108343,6917.846,95.437,540.429,538.994,0.0
53154.0,STARLINK-4077,PAYLOAD,2024-06-27 20:43:30,15.08846453,0.0001572,53.2193,66.6313,95.3929,264.7243,0.00012238,1.661e-05,0.0,0 STARLINK-4077,1 53154U 22083Y   24179.86354848  .00001661  00000-0  12238-3 0  9995,2 53154  53.2193  66.6313 0001572  95.3929 264.7243 15.08846453108416,6917.861,95.437,540.813,538.638,0.0
53154.0,STARLINK-4077,PAYLOAD,2024-06-27 22:18:53,15.08845626,0.0001239,53.2178,66.3317,89.2428,270.8706,0.00011196,1.495e-05,0.0,0 STARLINK-4077,1 53154U 22083Y   24179.92978841  .00001495  00000-0  11196-3 0  9994,2 53154  53.2178  66.3317 0001239  89.2428 270.8706 15.08845626107799,6917.863,95.437,540.585,538.871,0.0
53154.0,STARLINK-4077,PAYLOAD,2024-06-28 09:26:34,15.08861348,0.0001346,53.2172,64.2476,61.1684,298.9443,0.00023468,3.451e-05,0.0,0 STARLINK-4077,1 53154U 22083Y   24180.39345160  .00003451  00000-0  23468-3 0  9998,2 53154  53.2172  64.2476 0001346  61.1684 298.9443 15.08861348108494,6917.815,95.436,540.611,538.749,0.0
53154.0,STARLINK-4077,PAYLOAD,2024-06-28 20:34:19,15.08831846,0.0001039,53.2165,62.1661,76.6657,283.4451,-0.00023484,-4.022e-05,0.0,0 STARLINK-4077,1 53154U 22083Y   24180.85716567 -.00004022  00000-0 -23484-3 0  9997,2 53154  53.2165  62.1661 0001039  76.6657 283.4451 15.08831846108565,6917.905,95.438,540.489,539.052,0.0
53154.0,STARLINK-4077,PAYLOAD,2024-06-28 22:09:42,15.08832642,0.000119,53.2175,61.8689,77.0638,283.0487,-0.00021855,-3.764e-05,0.0,0 STARLINK-4077,1 53154U 22083Y   24180.92340527 -.00003764  00000-0 -21855-3 0  9996,2 53154  53.2175  61.8689 0001190  77.0638 283.0487 15.08832642107945,6917.903,95.438,540.591,538.945,0.0
53154.0,STARLINK-4077,PAYLOAD,2024-06-28 23:45:04,15.08846149,9.34e-05,53.2173,61.5712,95.8633,264.2465,-0.00010452,-1.951e-05,0.0,0 STARLINK-4077,1 53154U 22083Y   24180.98963263 -.00001951  00000-0 -10452-3 0  9997,2 53154  53.2173  61.5712 0000934  95.8633 264.2465 15.08846149108580,6917.862,95.437,540.373,539.08,0.0
53154.0,STARLINK-4077,PAYLOAD,2024-06-29 20:25:06,15.08822743,0.0001224,53.2174,57.7049,105.2654,254.8474,-0.00013259,-2.396e-05,0.0,0 STARLINK-4077,1 53154U 22083Y   24181.85077330 -.00002396  00000-0 -13259-3 0  9997,2 53154  53.2174  57.7049 0001224 105.2654 254.8474 15.08822743108717,6917.933,95.439,540.645,538.951,0.0
53154.0,STARLINK-4077,PAYLOAD,2024-06-29 22:00:30,15.0882549,0.0001215,53.218,57.4087,104.5078,255.6049,-0.00018501,-3.23e-05,0.0,0 STARLINK-4077,1 53154U 22083Y   24181.91701463 -.00003230  00000-0 -18501-3 0  9998,2 53154  53.2180  57.4087 0001215 104.5078 255.6049 15.08825490108095,6917.925,95.438,540.63,538.949,0.0
53154.0,STARLINK-4077,PAYLOAD,2024-06-30 09:08:11,15.08832293,0.0001157,53.2184,55.3329,91.7554,268.3571,-9.0894e-05,-1.734e-05,0.0,0 STARLINK-4077,1 53154U 22083Y   24182.38069161 -.00001734  00000-0 -90894-4 0  9995,2 53154  53.2184  55.3329 0001157  91.7554 268.3571 15.08832293108793,6917.904,95.438,540.569,538.969,0.0
53154.0,STARLINK-4077,PAYLOAD,2024-06-30 21:51:16,15.0882313,7.37e-05,53.2178,52.9523,68.3787,291.7284,0.00018712,2.69e-05,0.0,0 STARLINK-4077,1 53154U 22083Y   24182.91061162  .00002690  00000-0  18712-3 0  9995,2 53154  53.2178  52.9523 0000737  68.3787 291.7284 15.08823130108247,6917.932,95.439,540.307,539.287,0.0
53154.0,STARLINK-4077,PAYLOAD,2024-07-01 01:02:01,15.08845968,0.000132,53.2181,52.3537,113.939,246.174,0.00021242,3.095e-05,0.0,0 STARLINK-4077,1 53154U 22083Y   24183.04307787  .00003095  00000-0  21242-3 0  9998,2 53154  53.2181  52.3537 0001320 113.9390 246.1740 15.08845968108891,6917.862,95.437,540.64,538.814,0.0
53154.0,STARLINK-4077,PAYLOAD,2024-07-01 08:58:57,15.08851698,0.0001191,53.2184,50.8669,107.4033,252.7089,0.00022164,3.242e-05,0.0,0 STARLINK-4077,1 53154U 22083Y   24183.37427443  .00003242  00000-0  22164-3 0  9994,2 53154  53.2184  50.8669 0001191 107.4033 252.7089 15.08851698108314,6917.845,95.437,540.534,538.886,0.0
53154.0,STARLINK-4077,PAYLOAD,2024-07-01 21:42:03,15.08833186,0.000127,53.2186,48.4896,97.6477,262.466,0.00024624,3.632e-05,0.0,0 STARLINK-4077,1 53154U 22083Y   24183.90420937  .00003632  00000-0  24624-3 0  9990,2 53154  53.2186  48.4896 0001270  97.6477 262.4660 15.08833186109025,6917.901,95.438,540.645,538.888,0.0
53154.0,STARLINK-4077,PAYLOAD,2024-07-02 00:52:49,15.08836669,0.0001271,53.2186,47.8947,96.2808,263.8329,0.00026563,3.942e-05,0.0,0 STARLINK-4077,1 53154U 22083Y   24184.03668741  .00003942  00000-0  26563-3 0  9990,2 53154  53.2186  47.8947 0001271  96.2808 263.8329 15.08836669108417,6917.891,95.438,540.635,538.876,0.0
53154.0,STARLINK-4077,PAYLOAD,2024-07-02 21:32:50,15.08845282,0.0001007,53.2174,44.0272,91.7493,268.3614,-5.3728e-05,-1.143e-05,0.0,0 STARLINK-4077,1 53154U 22083Y   24184.89780966 -.00001143  00000-0 -53728-4 0  9995,2 53154  53.2174  44.0272 0001007  91.7493 268.3614 15.08845282108543,6917.864,95.437,540.426,539.033,0.0
53154.0,STARLINK-4077,PAYLOAD,2024-07-03 00:43:37,15.088444,0.0001028,53.2176,43.4329,90.9331,269.1779,-6.5028e-05,-1.323e-05,0.0,0 STARLINK-4077,1 53154U 22083Y   24185.03028995 -.00001323  00000-0 -65028-4 0  9995,2 53154  53.2176  43.4329 0001028  90.9331 269.1779 15.08844400109190,6917.867,95.437,540.443,539.021,0.0
53154.0,STARLINK-4077,PAYLOAD,2024-07-03 07:05:08,15.08855604,8.59e-05,53.2175,42.2458,103.9385,256.1702,3.3115e-06,-2.35e-06,0.0,0 STARLINK-4077,1 53154U 22083Y   24185.29523759 -.00000235  00000-0  33115-5 0  9994,2 53154  53.2175  42.2458 0000859 103.9385 256.1702 15.08855604109239,6917.833,95.437,540.292,539.103,0.0
53154.0,STARLINK-4077,PAYLOAD,2024-07-03 21:23:37,15.08839209,0.000116,53.2179,39.5708,97.4478,262.6646,5.5463e-05,5.95e-06,0.0,0 STARLINK-4077,1 53154U 22083Y   24185.89140814  .00000595  00000-0  55463-4 0  9994,2 53154  53.2179  39.5708 0001160  97.4478 262.6646 15.08839209109328,6917.883,95.438,540.55,538.945,0.0
53154.0,STARLINK-4077,PAYLOAD,2024-07-04 06:55:55,15.08852945,0.0001135,53.2185,37.7863,93.9534,266.1588,7.1908e-05,8.57e-06,0.0,0 STARLINK-4077,1 53154U 22083Y   24186.28883703  .00000857  00000-0  71908-4 0  9992,2 53154  53.2185  37.7863 0001135  93.9534 266.1588 15.08852945109385,6917.841,95.437,540.491,538.921,0.0
53154.0,STARLINK-4077,PAYLOAD,2024-07-04 14:52:52,15.08839767,0.0001508,53.2188,36.3036,107.879,252.2367,4.3206e-05,4e-06,0.0,0 STARLINK-4077,1 53154U 22083Y   24186.62004916  .00000400  00000-0  43206-4 0  9995,2 53154  53.2188  36.3036 0001508 107.8790 252.2367 15.08839767108802,6917.881,95.438,540.789,538.703,0.0
53154.0,STARLINK-4077,PAYLOAD,2024-07-04 21:14:24,15.08838665,9.28e-05,53.2185,35.1114,104.1726,255.937,2.7157e-05,1.45e-06,0.0,0 STARLINK-4077,1 53154U 22083Y   24186.88500936  .00000145  00000-0  27157-4 0  9999,2 53154  53.2185  35.1114 0000928 104.1726 255.9370 15.08838665109471,6917.884,95.438,540.391,539.107,0.0
53154.0,STARLINK-4077,PAYLOAD,2024-07-04 22:49:47,15.08841739,0.0001032,53.2186,34.8134,100.6997,259.4112,5.9008e-05,6.52e-06,0.0,0 STARLINK-4077,1 53154U 22083Y   24186.95124700  .00000652  00000-0  59008-4 0  9991,2 53154  53.2186  34.8134 0001032 100.6997 259.4112 15.08841739108858,6917.875,95.437,540.454,539.026,0.0
53154.0,STARLINK-4077,PAYLOAD,2024-07-05 06:46:43,15.08845224,0.0001154,53.2179,33.3262,91.8216,268.2909,7.5425e-05,9.13e-06,0.0,0 STARLINK-4077,1 53154U 22083Y   24187.28244257  .00000913  00000-0  75425-4 0  9999,2 53154  53.2179  33.3262 0001154  91.8216 268.2909 15.08845224109537,6917.864,95.437,540.528,538.931,0.0
53154.0,STARLINK-4077,PAYLOAD,2024-07-05 19:29:48,15.08832733,0.0001215,53.2176,30.9469,89.3722,270.7409,-4.0076e-05,-9.25e-06,0.0,0 STARLINK-4077,1 53154U 22083Y   24187.81237096 -.00000925  00000-0 -40076-4 0  9990,2 53154  53.2176  30.9469 0001215  89.3722 270.7409 15.08832733109611,6917.903,95.438,540.608,538.927,0.0
53154.0,STARLINK-4077,PAYLOAD,2024-07-05 21:05:11,15.0883544,0.0001307,53.2188,30.6523,91.6218,268.4924,3.2806e-06,-2.36e-06,0.0,0 STARLINK-4077,1 53154U 22083Y   24187.87861020 -.00000236  00000-0  32806-5 0  9993,2 53154  53.2188  30.6523 0001307  91.6218 268.4924 15.08835440108994,6917.894,95.438,540.663,538.855,0.0
53154.0,STARLINK-4077,PAYLOAD,2024-07-06 12:59:03,15.08846012,0.0001404,53.2192,27.6743,78.4715,281.6435,1.8787e-05,1.1e-07,0.0,0 STARLINK-4077,1 53154U 22083Y   24188.54100708  .00000011  00000-0  18787-4 0  9998,2 53154  53.2192  27.6743 0001404  78.4715 281.6435 15.08846012109725,6917.862,95.437,540.698,538.756,0.0
53154.0,STARLINK-4077,PAYLOAD,2024-07-06 19:20:35,15.08838682,0.0001032,53.2172,26.4848,79.3866,280.7243,4.7154e-05,4.63e-06,0.0,0 STARLINK-4077,1 53154U 22083Y   24188.80596930  .00000463  00000-0  47154-4 0  9994,2 53154  53.2172  26.4848 0001032  79.3866 280.7243 15.08838682109136,6917.884,95.438,540.463,539.035,0.0
